IRIDIUM 166             
1 43570U 18061B   24081.11961177  .00000205  00000+0  66298-4 0  9994
2 43570  86.3985  38.5984 0002562  88.5848 271.5641 14.34219210296148
IRIDIUM 158             
1 43571U 18061C   24080.94835740  .00000412  00000+0  13998-3 0  9999
2 43571  86.3985  38.6793 0002354  82.2242 277.9221 14.34221226296094
IRIDIUM 165             
1 43572U 18061D   24081.11326899  .00000044  00000+0  87760-5 0  9991
2 43572  86.3988  38.6411 0002377  82.4880 277.6586 14.34217794296131
IRIDIUM 155             
1 43573U 18061E   24081.14497803  .00000163  00000+0  51233-4 0  9996
2 43573  86.3983  38.5374 0002274  90.7920 269.3536 14.34216664296113
IRIDIUM 154             
1 43574U 18061F   24081.12595325  .00000259  00000+0  85418-4 0  9991
2 43574  86.3989  38.6390 0002023  82.5554 277.5871 14.34219393296152
IRIDIUM 163             
1 43575U 18061G   24080.89761189  .00000473  00000+0  16178-3 0  9992
2 43575  86.3983  38.6752 0002127  87.6039 272.5400 14.34222917296090
IRIDIUM 156             
1 43576U 18061H   24080.94201952  .00000269  00000+0  89130-4 0  9998
2 43576  86.3985  38.6626 0002447  86.1060 274.0415 14.34217989296092
IRIDIUM 164             
1 43577U 18061J   24081.13229288  .00000564  00000+0  19438-3 0  9994
2 43577  86.3987  38.6108 0002268  80.5246 279.6206 14.34219371296169
